ONEWEB-0693             
1 61601U 24188H   26169.79000354  .00000008  00000+0 -13425-4 0  9996
2 61601  87.9124   5.5774 0001250  68.7192 291.4073 13.17648572 86099
ONEWEB-0695             
1 61602U 24188J   26169.87101082  .00000216  00000+0  57382-3 0  9995
2 61602  87.8879  20.7413 0002175  98.2955 261.8419 13.11419180 84680
ONEWEB-0697             
1 61603U 24188K   26169.82691781 -.00000067  00000+0 -22510-3 0  9992
2 61603  87.8883  20.7405 0001858 110.5379 249.5948 13.11414182 84667
ONEWEB-0698             
1 61604U 24188L   26169.34710620  .00000476  00000+0  13083-2 0  9990
2 61604  87.8883  20.8500 0001011 122.1668 237.9558 13.11415620 84628
ONEWEB-0699             
1 61605U 24188M   26169.89530347  .00002689  00000+0  76595-2 0  9992
2 61605  87.8832  35.9262 0001649 105.7416 254.3894 13.10409099 83537
ONEWEB-0700             
1 61606U 24188N   26169.89697704  .00002431  00000+0  69219-2 0  9994
2 61606  87.8852  35.8350 0001891 103.5424 256.5914 13.10403577 83522
ONEWEB-0701             
1 61607U 24188P   26169.60824606 -.00001952  00000+0 -56306-2 0  9999
2 61607  87.8848  35.9806 0001440 110.9723 249.1559 13.10354614 83495
ONEWEB-0702             
1 61608U 24188Q   26169.85064700 -.00000616  00000+0 -17748-2 0  9991
2 61608  87.8903  20.6561 0002156 114.2746 245.8607 13.11418521 84705
ONEWEB-0704             
1 61609U 24188R   26169.36750022  .00001345  00000+0  38160-2 0  9996
2 61609  87.8845  36.0201 0002245 109.9978 250.1391 13.10387281 83446
ONEWEB-0705             
1 61610U 24188S   26169.60155767 -.00000216  00000+0 -65539-3 0  9999
2 61610  87.8844  35.9790 0002713  96.1799 263.9637 13.10377198 75640
ONEWEB-0706             
1 61611U 24188T   26169.35747243  .00003530  00000+0  10065-1 0  9990
2 61611  87.8829  36.0329 0002081 100.7667 259.3695 13.10416625 83537
ONEWEB-0707             
1 61612U 24188U   26169.13509758  .00001613  00000+0  45825-2 0  9997
2 61612  87.8844  36.0708 0002111  98.5546 261.5821 13.10390955 83443
ONEWEB-0708             
1 61613U 24188V   26169.61159400 -.00002539  00000+0 -73135-2 0  9991
2 61613  87.8831  35.9934 0002633  80.0598 280.0827 13.10347240 83486
