OBJECT_NAME,OBJECT_ID,EPOCH,MEAN_MOTION,ECCENTRICITY,INCLINATION,RA_OF_ASC_NODE,ARG_OF_PERICENTER,MEAN_ANOMALY,EPHEMERIS_TYPE,CLASSIFICATION_TYPE,NORAD_CAT_ID,ELEMENT_SET_NO,REV_AT_EPOCH,BSTAR,MEAN_MOTION_DOT,MEAN_MOTION_DDOT
ONEWEB-0693,2024-188H,2026-06-18T18:57:36.305856,13.17648572,.000125,87.9124,5.5774,68.7192,291.4073,0,U,61601,999,8609,-.13425E-4,.8E-7,0
ONEWEB-0695,2024-188J,2026-06-18T20:54:15.334848,13.11419180,.0002175,87.8879,20.7413,98.2955,261.8419,0,U,61602,999,8468,.57382E-3,.216E-5,0
ONEWEB-0697,2024-188K,2026-06-18T19:50:45.698784,13.11414182,.0001858,87.8883,20.7405,110.5379,249.5948,0,U,61603,999,8466,-.2251E-3,-.67E-6,0
ONEWEB-0698,2024-188L,2026-06-18T08:19:49.975680,13.11415620,.0001011,87.8883,20.8500,122.1668,237.9558,0,U,61604,999,8462,.13083E-2,.476E-5,0
ONEWEB-0699,2024-188M,2026-06-18T21:29:14.219808,13.10409099,.0001649,87.8832,35.9262,105.7416,254.3894,0,U,61605,999,8353,.76595E-2,.2689E-4,0
ONEWEB-0700,2024-188N,2026-06-18T21:31:38.816256,13.10403577,.0001891,87.8852,35.8350,103.5424,256.5914,0,U,61606,999,8352,.69219E-2,.2431E-4,0
ONEWEB-0701,2024-188P,2026-06-18T14:35:52.459584,13.10354614,.000144,87.8848,35.9806,110.9723,249.1559,0,U,61607,999,8349,-.56306E-2,-.1952E-4,0
ONEWEB-0702,2024-188Q,2026-06-18T20:24:55.900800,13.11418521,.0002156,87.8903,20.6561,114.2746,245.8607,0,U,61608,999,8470,-.17748E-2,-.616E-5,0
ONEWEB-0704,2024-188R,2026-06-18T08:49:12.019008,13.10387281,.0002245,87.8845,36.0201,109.9978,250.1391,0,U,61609,999,8344,.3816E-2,.1345E-4,0
ONEWEB-0705,2024-188S,2026-06-18T14:26:14.582688,13.10377198,.0002713,87.8844,35.9790,96.1799,263.9637,0,U,61610,999,7564,-.65539E-3,-.216E-5,0
ONEWEB-0706,2024-188T,2026-06-18T08:34:45.617952,13.10416625,.0002081,87.8829,36.0329,100.7667,259.3695,0,U,61611,999,8353,.10065E-1,.353E-4,0
ONEWEB-0707,2024-188U,2026-06-18T03:14:32.430912,13.10390955,.0002111,87.8844,36.0708,98.5546,261.5821,0,U,61612,999,8344,.45825E-2,.1613E-4,0
ONEWEB-0708,2024-188V,2026-06-18T14:40:41.721600,13.10347240,.0002633,87.8831,35.9934,80.0598,280.0827,0,U,61613,999,8348,-.73135E-2,-.2539E-4,0
